[{"OBJECT_NAME":"STARLINK-4370","OBJECT_ID":"2022-084AU","EPOCH":"2026-03-09T21:01:05.677824","MEAN_MOTION":15.05657198,"ECCENTRICITY":8.897e-5,"INCLINATION":97.6025,"RA_OF_ASC_NODE":131.3965,"ARG_OF_PERICENTER":128.6343,"MEAN_ANOMALY":231.4964,"EPHEMERIS_TYPE":0,"CLASSIFICATION_TYPE":"U","NORAD_CAT_ID":53231,"ELEMENT_SET_NO":999,"REV_AT_EPOCH":19941,"BSTAR":0.00012744619,"MEAN_MOTION_DOT":1.779e-5,"MEAN_MOTION_DDOT":0},{"OBJECT_NAME":"IRIDIUM 33 DEB","OBJECT_ID":"1997-051ABJ","EPOCH":"2026-03-07T11:02:11.153184","MEAN_MOTION":15.04355632,"ECCENTRICITY":0.00105712,"INCLINATION":86.348,"RA_OF_ASC_NODE":321.5871,"ARG_OF_PERICENTER":86.7515,"MEAN_ANOMALY":38.318,"EPHEMERIS_TYPE":0,"CLASSIFICATION_TYPE":"U","NORAD_CAT_ID":40996,"ELEMENT_SET_NO":999,"REV_AT_EPOCH":63758,"BSTAR":0.0045408492,"MEAN_MOTION_DOT":0.00063892,"MEAN_MOTION_DDOT":0}]
